[{"OBJECT_NAME":"STARLINK-3503","OBJECT_ID":"2022-022P","EPOCH":"2026-03-09T02:28:09.690816","MEAN_MOTION":15.08836556,"ECCENTRICITY":0.00013821,"INCLINATION":53.2178,"RA_OF_ASC_NODE":11.7545,"ARG_OF_PERICENTER":99.4768,"MEAN_ANOMALY":260.6381,"EPHEMERIS_TYPE":0,"CLASSIFICATION_TYPE":"U","NORAD_CAT_ID":51865,"ELEMENT_SET_NO":999,"REV_AT_EPOCH":22302,"BSTAR":1.3921816e-5,"MEAN_MOTION_DOT":-6.6e-7,"MEAN_MOTION_DDOT":0},{"OBJECT_NAME":"PEGASUS DEB","OBJECT_ID":"1994-029AFV","EPOCH":"2026-03-07T18:19:12.614880","MEAN_MOTION":14.92266405,"ECCENTRICITY":0.0107713,"INCLINATION":81.5817,"RA_OF_ASC_NODE":82.8303,"ARG_OF_PERICENTER":304.7008,"MEAN_ANOMALY":54.4096,"EPHEMERIS_TYPE":0,"CLASSIFICATION_TYPE":"U","NORAD_CAT_ID":39922,"ELEMENT_SET_NO":999,"REV_AT_EPOCH":62967,"BSTAR":0.0012051888,"MEAN_MOTION_DOT":0.00013798,"MEAN_MOTION_DDOT":0}]
